STARLINK-4484           
1 53417U 22097AF  26201.43267152  .00003192  00000+0  21857-3 0  9991
2 53417  53.1573 237.9203 0001172  88.0079 272.1047 15.08833348218664
