[
  {
    "OBJECT_NAME": "STARLINK-4484",
    "OBJECT_ID": "2022-097AF",
    "EPOCH": "2026-07-20T10:23:02.819000",
    "MEAN_MOTION": 15.08833348,
    "ECCENTRICITY": 0.0001172,
    "INCLINATION": 53.1573,
    "RA_OF_ASC_NODE": 237.9203,
    "ARG_OF_PERICENTER": 88.0079,
    "MEAN_ANOMALY": 272.1047,
    "EPHEMERIS_TYPE": 0,
    "CLASSIFICATION_TYPE": "U",
    "NORAD_CAT_ID": 53417,
    "ELEMENT_SET_NO": 999,
    "REV_AT_EPOCH": 21866,
    "BSTAR": 0.00021857,
    "MEAN_MOTION_DOT": 0.00003192,
    "MEAN_MOTION_DDOT": 0
  }
]
